[{"OBJECT_NAME":"STARLINK-31809","OBJECT_ID":"2024-090P","EPOCH":"2026-03-09T07:33:02.274624","MEAN_MOTION":15.27574983,"ECCENTRICITY":0.00010799,"INCLINATION":43.0002,"RA_OF_ASC_NODE":178.6175,"ARG_OF_PERICENTER":298.3904,"MEAN_ANOMALY":61.6839,"EPHEMERIS_TYPE":0,"CLASSIFICATION_TYPE":"U","NORAD_CAT_ID":59743,"ELEMENT_SET_NO":999,"REV_AT_EPOCH":10346,"BSTAR":-2.2778375e-5,"MEAN_MOTION_DOT":-8.89e-6,"MEAN_MOTION_DDOT":0},{"OBJECT_NAME":"HERMES-2","OBJECT_ID":"2025-052AK","EPOCH":"2026-03-09T22:17:00.130272","MEAN_MOTION":15.28021069,"ECCENTRICITY":0.00063399,"INCLINATION":97.4004,"RA_OF_ASC_NODE":324.4926,"ARG_OF_PERICENTER":99.416,"MEAN_ANOMALY":260.7796,"EPHEMERIS_TYPE":0,"CLASSIFICATION_TYPE":"U","NORAD_CAT_ID":63243,"ELEMENT_SET_NO":999,"REV_AT_EPOCH":5485,"BSTAR":0.00034839454,"MEAN_MOTION_DOT":9.456e-5,"MEAN_MOTION_DDOT":0}]
